[
    {
        "Altitude(m)": 554015.3380343163,
        "Argument of Periapsis(deg)": 0.006622991110713501,
        "Eccentricity": 0.0,
        "Inclination(deg)": 53.0,
        "Latitude(deg)": 22.288043159671414,
        "Longitude(deg)": 32.11631224904477,
        "Mean Anomaly(deg)": 28.273392867577584,
        "RAAN(deg)": 114.99014336852801,
        "Satellite Name": "Starlink Shell 1 507",
        "Satellite Number": 507,
        "Semi-Major Axis(m)": 6931778.249405717,
        "Time(s)": 190
    },
    {
        "Altitude(m)": 554065.0000789133,
        "Argument of Periapsis(deg)": 0.0069715695902247375,
        "Eccentricity": 0.0,
        "Inclination(deg)": 53.0,
        "Latitude(deg)": 22.766517011924257,
        "Longitude(deg)": 32.51619239162242,
        "Mean Anomaly(deg)": 28.900224071134303,
        "RAAN(deg)": 114.98962459845053,
        "Satellite Name": "Starlink Shell 1 507",
        "Satellite Number": 507,
        "Semi-Major Axis(m)": 6931778.249405717,
        "Time(s)": 200
    },
    {
        "Altitude(m)": 554116.4993743738,
        "Argument of Periapsis(deg)": 0.007320148069735974,
        "Eccentricity": 0.0,
        "Inclination(deg)": 53.0,
        "Latitude(deg)": 23.243736263543923,
        "Longitude(deg)": 32.91915249129685,
        "Mean Anomaly(deg)": 29.527055274691,
        "RAAN(deg)": 114.98910582837307,
        "Satellite Name": "Starlink Shell 1 507",
        "Satellite Number": 507,
        "Semi-Major Axis(m)": 6931778.249405717,
        "Time(s)": 210
    },
    {
        "Altitude(m)": 554169.7904117935,
        "Argument of Periapsis(deg)": 0.007668726549247212,
        "Eccentricity": 0.0,
        "Inclination(deg)": 53.0,
        "Latitude(deg)": 23.719662973023365,
        "Longitude(deg)": 33.32527828785461,
        "Mean Anomaly(deg)": 30.15388647824775,
        "RAAN(deg)": 114.98858705829561,
        "Satellite Name": "Starlink Shell 1 507",
        "Satellite Number": 507,
        "Semi-Major Axis(m)": 6931778.249405717,
        "Time(s)": 220
    },
    {
        "Altitude(m)": 554224.8269513403,
        "Argument of Periapsis(deg)": 0.00801730502875845,
        "Eccentricity": 0.0,
        "Inclination(deg)": 53.0,
        "Latitude(deg)": 24.194258443029764,
        "Longitude(deg)": 33.73465672822995,
        "Mean Anomaly(deg)": 30.780717681804443,
        "RAAN(deg)": 114.98806828821812,
        "Satellite Name": "Starlink Shell 1 507",
        "Satellite Number": 507,
        "Semi-Major Axis(m)": 6931778.249405717,
        "Time(s)": 230
    },
    {
        "Altitude(m)": 554281.5620474473,
        "Argument of Periapsis(deg)": 0.008365883508269684,
        "Eccentricity": 0.0,
        "Inclination(deg)": 53.0,
        "Latitude(deg)": 24.667483195442788,
        "Longitude(deg)": 34.14737648976486,
        "Mean Anomaly(deg)": 31.407548885361166,
        "RAAN(deg)": 114.98754951814065,
        "Satellite Name": "Starlink Shell 1 507",
        "Satellite Number": 507,
        "Semi-Major Axis(m)": 6931778.249405717,
        "Time(s)": 240
    },
    {
        "Altitude(m)": 554339.9480743103,
        "Argument of Periapsis(deg)": 0.008714461987780921,
        "Eccentricity": 0.0,
        "Inclination(deg)": 53.0,
        "Latitude(deg)": 25.13929694586019,
        "Longitude(deg)": 34.563526989366125,
        "Mean Anomaly(deg)": 32.034380088917885,
        "RAAN(deg)": 114.98703074806318,
        "Satellite Name": "Starlink Shell 1 507",
        "Satellite Number": 507,
        "Semi-Major Axis(m)": 6931778.249405717,
        "Time(s)": 250
    },
    {
        "Altitude(m)": 554399.9367516761,
        "Argument of Periapsis(deg)": 0.009063040467292158,
        "Eccentricity": 0.0,
        "Inclination(deg)": 53.0,
        "Latitude(deg)": 25.60965857757482,
        "Longitude(deg)": 34.983198904175595,
        "Mean Anomaly(deg)": 32.66121129247458,
        "RAAN(deg)": 114.9865119779857,
        "Satellite Name": "Starlink Shell 1 507",
        "Satellite Number": 507,
        "Semi-Major Axis(m)": 6931778.249405717,
        "Time(s)": 260
    },
    {
        "Altitude(m)": 554461.4791709222,
        "Argument of Periapsis(deg)": 0.009411618946803396,
        "Eccentricity": 0.0,
        "Inclination(deg)": 53.0,
        "Latitude(deg)": 26.078526115020225,
        "Longitude(deg)": 35.406484690734835,
        "Mean Anomaly(deg)": 33.28804249603133,
        "RAAN(deg)": 114.98599320790824,
        "Satellite Name": "Starlink Shell 1 507",
        "Satellite Number": 507,
        "Semi-Major Axis(m)": 6931778.249405717,
        "Time(s)": 270
    },
    {
        "Altitude(m)": 554524.5258214229,
        "Argument of Periapsis(deg)": 0.009760197426314633,
        "Eccentricity": 0.0,
        "Inclination(deg)": 53.0,
        "Latitude(deg)": 26.545856696683753,
        "Longitude(deg)": 35.83347758961495,
        "Mean Anomaly(deg)": 33.91487369958802,
        "RAAN(deg)": 114.98547443783077,
        "Satellite Name": "Starlink Shell 1 507",
        "Satellite Number": 507,
        "Semi-Major Axis(m)": 6931778.249405717,
        "Time(s)": 280
    },
    {
        "Altitude(m)": 554589.0266171548,
        "Argument of Periapsis(deg)": 0.01010877590582587,
        "Eccentricity": 0.0,
        "Inclination(deg)": 53.0,
        "Latitude(deg)": 27.011606547496413,
        "Longitude(deg)": 36.264272141093855,
        "Mean Anomaly(deg)": 34.54170490314475,
        "RAAN(deg)": 114.98495566775328,
        "Satellite Name": "Starlink Shell 1 507",
        "Satellite Number": 507,
        "Semi-Major Axis(m)": 6931778.249405717,
        "Time(s)": 290
    },
    {
        "Altitude(m)": 554654.9309235695,
        "Argument of Periapsis(deg)": 0.010457354385337106,
        "Eccentricity": 0.0,
        "Inclination(deg)": 53.0,
        "Latitude(deg)": 27.475730950701948,
        "Longitude(deg)": 36.69896469882749,
        "Mean Anomaly(deg)": 35.16853610670144,
        "RAAN(deg)": 114.98443689767582,
        "Satellite Name": "Starlink Shell 1 507",
        "Satellite Number": 507,
        "Semi-Major Axis(m)": 6931778.249405717,
        "Time(s)": 300
    },
    {
        "Altitude(m)": 554722.1875846724,
        "Argument of Periapsis(deg)": 0.010805932864848343,
        "Eccentricity": 0.0,
        "Inclination(deg)": 53.0,
        "Latitude(deg)": 27.9381842192117,
        "Longitude(deg)": 37.13765242845038,
        "Mean Anomaly(deg)": 35.795367310258165,
        "RAAN(deg)": 114.98391812759834,
        "Satellite Name": "Starlink Shell 1 507",
        "Satellite Number": 507,
        "Semi-Major Axis(m)": 6931778.249405717,
        "Time(s)": 310
    },
    {
        "Altitude(m)": 554790.7449503497,
        "Argument of Periapsis(deg)": 0.01115451134435958,
        "Eccentricity": 0.0,
        "Inclination(deg)": 53.0,
        "Latitude(deg)": 28.398919666460397,
        "Longitude(deg)": 37.58043381664758,
        "Mean Anomaly(deg)": 36.42219851381488,
        "RAAN(deg)": 114.98339935752087,
        "Satellite Name": "Starlink Shell 1 507",
        "Satellite Number": 507,
        "Semi-Major Axis(m)": 6931778.249405717,
        "Time(s)": 320
    },
    {
        "Altitude(m)": 554860.5509038778,
        "Argument of Periapsis(deg)": 0.011503089823870818,
        "Eccentricity": 0.0,
        "Inclination(deg)": 53.0,
        "Latitude(deg)": 28.857889576774188,
        "Longitude(deg)": 38.02740917760557,
        "Mean Anomaly(deg)": 37.0490297173716,
        "RAAN(deg)": 114.98288058744339,
        "Satellite Name": "Starlink Shell 1 507",
        "Satellite Number": 507,
        "Semi-Major Axis(m)": 6931778.249405717,
        "Time(s)": 330
    },
    {
        "Altitude(m)": 554931.552889623,
        "Argument of Periapsis(deg)": 0.011851668303382053,
        "Eccentricity": 0.0,
        "Inclination(deg)": 53.0,
        "Latitude(deg)": 29.31504517526549,
        "Longitude(deg)": 38.47867964373388,
        "Mean Anomaly(deg)": 37.67586092092833,
        "RAAN(deg)": 114.98236181736594,
        "Satellite Name": "Starlink Shell 1 507",
        "Satellite Number": 507,
        "Semi-Major Axis(m)": 6931778.249405717,
        "Time(s)": 340
    },
    {
        "Altitude(m)": 555003.6979409255,
        "Argument of Periapsis(deg)": 0.012200246782893292,
        "Eccentricity": 0.0,
        "Inclination(deg)": 53.0,
        "Latitude(deg)": 29.770336597279503,
        "Longitude(deg)": 38.934347666155915,
        "Mean Anomaly(deg)": 38.30269212448502,
        "RAAN(deg)": 114.98184304728845,
        "Satellite Name": "Starlink Shell 1 507",
        "Satellite Number": 507,
        "Semi-Major Axis(m)": 6931778.249405717,
        "Time(s)": 350
    },
    {
        "Altitude(m)": 555076.9327081316,
        "Argument of Periapsis(deg)": 0.012548825262404526,
        "Eccentricity": 0.0,
        "Inclination(deg)": 53.0,
        "Latitude(deg)": 30.223712857413936,
        "Longitude(deg)": 39.39451751182939,
        "Mean Anomaly(deg)": 38.92952332804174,
        "RAAN(deg)": 114.98132427721099,
        "Satellite Name": "Starlink Shell 1 507",
        "Satellite Number": 507,
        "Semi-Major Axis(m)": 6931778.249405717,
        "Time(s)": 360
    },
    {
        "Altitude(m)": 555151.2034867816,
        "Argument of Periapsis(deg)": 0.012897403741915765,
        "Eccentricity": 0.0,
        "Inclination(deg)": 53.0,
        "Latitude(deg)": 30.675121818137804,
        "Longitude(deg)": 39.85929424413969,
        "Mean Anomaly(deg)": 39.55635453159846,
        "RAAN(deg)": 114.98080550713351,
        "Satellite Name": "Starlink Shell 1 507",
        "Satellite Number": 507,
        "Semi-Major Axis(m)": 6931778.249405717,
        "Time(s)": 370
    }
]